STARLINK-33972          
1 63893U 25095D   25144.83335648 -.01044083  00000+0 -67930-2 0  9994
2 63893  43.0010  12.2296 0001571 266.4441 222.8059 15.77386761  3554
STARLINK-33973          
1 63894U 25095E   25144.58335648 -.01018755  00000+0 -64817-2 0  9995
2 63894  43.0013  13.7423 0001602 257.5110 252.5631 15.77823710  3528
STARLINK-34119          
1 63895U 25095F   25144.58335648 -.01033105  00000+0 -66075-2 0  9990
2 63895  43.0013  13.7369 0001644 260.0587 252.3752 15.77740102  3526
STARLINK-34143          
1 63896U 25095G   25144.58335648 -.01038070  00000+0 -66662-2 0  9999
2 63896  43.0013  13.7309 0001409 256.7126 258.0029 15.77664053  3521
STARLINK-33957          
1 63897U 25095H   25144.58335648 -.01050741  00000+0 -67873-2 0  9994
2 63897  43.0012  13.7246 0001698 261.9978 255.1136 15.77560151  3525
STARLINK-34120          
1 63898U 25095J   25144.83335648 -.01093870  00000+0 -73075-2 0  9994
2 63898  43.0006  12.2003 0001370 263.1365 237.4534 15.76915861  3543
STARLINK-34134          
1 63899U 25095K   25144.58335648 -.01067384  00000+0 -69600-2 0  9997
2 63899  43.0012  13.7134 0001423 254.1229 267.5502 15.77392340  3529
STARLINK-34118          
1 63900U 25095L   25144.58335648 -.01076268  00000+0 -70549-2 0  9995
2 63900  43.0012  13.7075 0001312 252.8033 271.1687 15.77297224  3521
STARLINK-34125          
1 63901U 25095M   25144.58335648 -.01086275  00000+0 -71500-2 0  9993
2 63901  43.0011  13.7019 0001424 255.7201 270.4444 15.77227368  3527
STARLINK-33955          
1 63902U 25095N   25144.58335648 -.01108512  00000+0 -73499-2 0  9992
2 63902  43.0011  13.6960 0001351 257.6439 270.8542 15.77117066  3521
STARLINK-34097          
1 63903U 25095P   25144.58335648 -.01125100  00000+0 -75020-2 0  9997
2 63903  43.0010  13.6903 0001627 258.9609 271.7621 15.77027615  3525
STARLINK-34092          
1 63904U 25095Q   25144.58335648 -.01141563  00000+0 -76523-2 0  9998
2 63904  43.0012  13.6852 0001642 263.0830 269.8190 15.76947686  3528
STARLINK-34114          
1 63905U 25095R   25144.58335648 -.01150484  00000+0 -77578-2 0  9992
2 63905  43.0009  13.6792 0001585 257.8375 277.2963 15.76837635  3522
STARLINK-33770          
1 63906U 25095S   25144.58335648 -.01159894  00000+0 -78650-2 0  9999
2 63906  43.0008  13.6739 0001338 255.5199 281.7964 15.76738009  3524
