[
  {
    "OBJECT_NAME": "STARLINK-33972",
    "OBJECT_ID": "2025-095D",
    "EPOCH": "2025-05-24T20:00:01.999872",
    "MEAN_MOTION": 15.77386761,
    "ECCENTRICITY": 0.0001571,
    "INCLINATION": 43.001,
    "RA_OF_ASC_NODE": 12.2296,
    "ARG_OF_PERICENTER": 266.4441,
    "MEAN_ANOMALY": 222.8059,
    "EPHEMERIS_TYPE": 0,
    "CLASSIFICATION_TYPE": "U",
    "NORAD_CAT_ID": 63893,
    "ELEMENT_SET_NO": 999,
    "REV_AT_EPOCH": 355,
    "BSTAR": -0.006793,
    "MEAN_MOTION_DOT": -0.01044083,
    "MEAN_MOTION_DDOT": 0
  },
  {
    "OBJECT_NAME": "STARLINK-33973",
    "OBJECT_ID": "2025-095E",
    "EPOCH": "2025-05-24T14:00:01.999872",
    "MEAN_MOTION": 15.7782371,
    "ECCENTRICITY": 0.0001602,
    "INCLINATION": 43.0013,
    "RA_OF_ASC_NODE": 13.7423,
    "ARG_OF_PERICENTER": 257.511,
    "MEAN_ANOMALY": 252.5631,
    "EPHEMERIS_TYPE": 0,
    "CLASSIFICATION_TYPE": "U",
    "NORAD_CAT_ID": 63894,
    "ELEMENT_SET_NO": 999,
    "REV_AT_EPOCH": 352,
    "BSTAR": -0.0064817,
    "MEAN_MOTION_DOT": -0.01018755,
    "MEAN_MOTION_DDOT": 0
  },
  {
    "OBJECT_NAME": "STARLINK-34119",
    "OBJECT_ID": "2025-095F",
    "EPOCH": "2025-05-24T14:00:01.999872",
    "MEAN_MOTION": 15.77740102,
    "ECCENTRICITY": 0.0001644,
    "INCLINATION": 43.0013,
    "RA_OF_ASC_NODE": 13.7369,
    "ARG_OF_PERICENTER": 260.0587,
    "MEAN_ANOMALY": 252.3752,
    "EPHEMERIS_TYPE": 0,
    "CLASSIFICATION_TYPE": "U",
    "NORAD_CAT_ID": 63895,
    "ELEMENT_SET_NO": 999,
    "REV_AT_EPOCH": 352,
    "BSTAR": -0.0066075,
    "MEAN_MOTION_DOT": -0.01033105,
    "MEAN_MOTION_DDOT": 0
  },
  {
    "OBJECT_NAME": "STARLINK-34143",
    "OBJECT_ID": "2025-095G",
    "EPOCH": "2025-05-24T14:00:01.999872",
    "MEAN_MOTION": 15.77664053,
    "ECCENTRICITY": 0.0001409,
    "INCLINATION": 43.0013,
    "RA_OF_ASC_NODE": 13.7309,
    "ARG_OF_PERICENTER": 256.7126,
    "MEAN_ANOMALY": 258.0029,
    "EPHEMERIS_TYPE": 0,
    "CLASSIFICATION_TYPE": "U",
    "NORAD_CAT_ID": 63896,
    "ELEMENT_SET_NO": 999,
    "REV_AT_EPOCH": 352,
    "BSTAR": -0.0066662,
    "MEAN_MOTION_DOT": -0.0103807,
    "MEAN_MOTION_DDOT": 0
  },
  {
    "OBJECT_NAME": "STARLINK-33957",
    "OBJECT_ID": "2025-095H",
    "EPOCH": "2025-05-24T14:00:01.999872",
    "MEAN_MOTION": 15.77560151,
    "ECCENTRICITY": 0.0001698,
    "INCLINATION": 43.0012,
    "RA_OF_ASC_NODE": 13.7246,
    "ARG_OF_PERICENTER": 261.9978,
    "MEAN_ANOMALY": 255.1136,
    "EPHEMERIS_TYPE": 0,
    "CLASSIFICATION_TYPE": "U",
    "NORAD_CAT_ID": 63897,
    "ELEMENT_SET_NO": 999,
    "REV_AT_EPOCH": 352,
    "BSTAR": -0.0067873,
    "MEAN_MOTION_DOT": -0.01050741,
    "MEAN_MOTION_DDOT": 0
  },
  {
    "OBJECT_NAME": "STARLINK-34120",
    "OBJECT_ID": "2025-095J",
    "EPOCH": "2025-05-24T20:00:01.999872",
    "MEAN_MOTION": 15.76915861,
    "ECCENTRICITY": 0.000137,
    "INCLINATION": 43.0006,
    "RA_OF_ASC_NODE": 12.2003,
    "ARG_OF_PERICENTER": 263.1365,
    "MEAN_ANOMALY": 237.4534,
    "EPHEMERIS_TYPE": 0,
    "CLASSIFICATION_TYPE": "U",
    "NORAD_CAT_ID": 63898,
    "ELEMENT_SET_NO": 999,
    "REV_AT_EPOCH": 354,
    "BSTAR": -0.0073075,
    "MEAN_MOTION_DOT": -0.0109387,
    "MEAN_MOTION_DDOT": 0
  },
  {
    "OBJECT_NAME": "STARLINK-34134",
    "OBJECT_ID": "2025-095K",
    "EPOCH": "2025-05-24T14:00:01.999872",
    "MEAN_MOTION": 15.7739234,
    "ECCENTRICITY": 0.0001423,
    "INCLINATION": 43.0012,
    "RA_OF_ASC_NODE": 13.7134,
    "ARG_OF_PERICENTER": 254.1229,
    "MEAN_ANOMALY": 267.5502,
    "EPHEMERIS_TYPE": 0,
    "CLASSIFICATION_TYPE": "U",
    "NORAD_CAT_ID": 63899,
    "ELEMENT_SET_NO": 999,
    "REV_AT_EPOCH": 352,
    "BSTAR": -0.00696,
    "MEAN_MOTION_DOT": -0.01067384,
    "MEAN_MOTION_DDOT": 0
  },
  {
    "OBJECT_NAME": "STARLINK-34118",
    "OBJECT_ID": "2025-095L",
    "EPOCH": "2025-05-24T14:00:01.999872",
    "MEAN_MOTION": 15.77297224,
    "ECCENTRICITY": 0.0001312,
    "INCLINATION": 43.0012,
    "RA_OF_ASC_NODE": 13.7075,
    "ARG_OF_PERICENTER": 252.8033,
    "MEAN_ANOMALY": 271.1687,
    "EPHEMERIS_TYPE": 0,
    "CLASSIFICATION_TYPE": "U",
    "NORAD_CAT_ID": 63900,
    "ELEMENT_SET_NO": 999,
    "REV_AT_EPOCH": 352,
    "BSTAR": -0.0070549,
    "MEAN_MOTION_DOT": -0.01076268,
    "MEAN_MOTION_DDOT": 0
  },
  {
    "OBJECT_NAME": "STARLINK-34125",
    "OBJECT_ID": "2025-095M",
    "EPOCH": "2025-05-24T14:00:01.999872",
    "MEAN_MOTION": 15.77227368,
    "ECCENTRICITY": 0.0001424,
    "INCLINATION": 43.0011,
    "RA_OF_ASC_NODE": 13.7019,
    "ARG_OF_PERICENTER": 255.7201,
    "MEAN_ANOMALY": 270.4444,
    "EPHEMERIS_TYPE": 0,
    "CLASSIFICATION_TYPE": "U",
    "NORAD_CAT_ID": 63901,
    "ELEMENT_SET_NO": 999,
    "REV_AT_EPOCH": 352,
    "BSTAR": -0.00715,
    "MEAN_MOTION_DOT": -0.01086275,
    "MEAN_MOTION_DDOT": 0
  },
  {
    "OBJECT_NAME": "STARLINK-33955",
    "OBJECT_ID": "2025-095N",
    "EPOCH": "2025-05-24T14:00:01.999872",
    "MEAN_MOTION": 15.77117066,
    "ECCENTRICITY": 0.0001351,
    "INCLINATION": 43.0011,
    "RA_OF_ASC_NODE": 13.696,
    "ARG_OF_PERICENTER": 257.6439,
    "MEAN_ANOMALY": 270.8542,
    "EPHEMERIS_TYPE": 0,
    "CLASSIFICATION_TYPE": "U",
    "NORAD_CAT_ID": 63902,
    "ELEMENT_SET_NO": 999,
    "REV_AT_EPOCH": 352,
    "BSTAR": -0.0073499,
    "MEAN_MOTION_DOT": -0.01108512,
    "MEAN_MOTION_DDOT": 0
  },
  {
    "OBJECT_NAME": "STARLINK-34097",
    "OBJECT_ID": "2025-095P",
    "EPOCH": "2025-05-24T14:00:01.999872",
    "MEAN_MOTION": 15.77027615,
    "ECCENTRICITY": 0.0001627,
    "INCLINATION": 43.001,
    "RA_OF_ASC_NODE": 13.6903,
    "ARG_OF_PERICENTER": 258.9609,
    "MEAN_ANOMALY": 271.7621,
    "EPHEMERIS_TYPE": 0,
    "CLASSIFICATION_TYPE": "U",
    "NORAD_CAT_ID": 63903,
    "ELEMENT_SET_NO": 999,
    "REV_AT_EPOCH": 352,
    "BSTAR": -0.007502,
    "MEAN_MOTION_DOT": -0.011251,
    "MEAN_MOTION_DDOT": 0
  },
  {
    "OBJECT_NAME": "STARLINK-34092",
    "OBJECT_ID": "2025-095Q",
    "EPOCH": "2025-05-24T14:00:01.999872",
    "MEAN_MOTION": 15.76947686,
    "ECCENTRICITY": 0.0001642,
    "INCLINATION": 43.0012,
    "RA_OF_ASC_NODE": 13.6852,
    "ARG_OF_PERICENTER": 263.083,
    "MEAN_ANOMALY": 269.819,
    "EPHEMERIS_TYPE": 0,
    "CLASSIFICATION_TYPE": "U",
    "NORAD_CAT_ID": 63904,
    "ELEMENT_SET_NO": 999,
    "REV_AT_EPOCH": 352,
    "BSTAR": -0.0076523,
    "MEAN_MOTION_DOT": -0.01141563,
    "MEAN_MOTION_DDOT": 0
  },
  {
    "OBJECT_NAME": "STARLINK-34114",
    "OBJECT_ID": "2025-095R",
    "EPOCH": "2025-05-24T14:00:01.999872",
    "MEAN_MOTION": 15.76837635,
    "ECCENTRICITY": 0.0001585,
    "INCLINATION": 43.0009,
    "RA_OF_ASC_NODE": 13.6792,
    "ARG_OF_PERICENTER": 257.8375,
    "MEAN_ANOMALY": 277.2963,
    "EPHEMERIS_TYPE": 0,
    "CLASSIFICATION_TYPE": "U",
    "NORAD_CAT_ID": 63905,
    "ELEMENT_SET_NO": 999,
    "REV_AT_EPOCH": 352,
    "BSTAR": -0.0077578,
    "MEAN_MOTION_DOT": -0.01150484,
    "MEAN_MOTION_DDOT": 0
  },
  {
    "OBJECT_NAME": "STARLINK-33770",
    "OBJECT_ID": "2025-095S",
    "EPOCH": "2025-05-24T14:00:01.999872",
    "MEAN_MOTION": 15.76738009,
    "ECCENTRICITY": 0.0001338,
    "INCLINATION": 43.0008,
    "RA_OF_ASC_NODE": 13.6739,
    "ARG_OF_PERICENTER": 255.5199,
    "MEAN_ANOMALY": 281.7964,
    "EPHEMERIS_TYPE": 0,
    "CLASSIFICATION_TYPE": "U",
    "NORAD_CAT_ID": 63906,
    "ELEMENT_SET_NO": 999,
    "REV_AT_EPOCH": 352,
    "BSTAR": -0.007865,
    "MEAN_MOTION_DOT": -0.01159894,
    "MEAN_MOTION_DDOT": 0
  }
]